IRIDIUM 39              
1 25042U 97069D   25056.60962961  .00001504  00000+0  39134-3 0  9993
2 25042  86.3861 258.9694 0016758 325.2265  34.7842 14.48932940432801
IRIDIUM 38              
1 25043U 97069E   25056.62725168  .00000946  00000+0  30700-3 0  9991
2 25043  86.3915 280.1168 0003893  95.4385 264.7257 14.37935189429920
IRIDIUM 42              
1 25077U 97077A   25056.63626816  .00000886  00000+0  29729-3 0  9990
2 25077  86.3928 286.1504 0002647  95.1449 265.0050 14.36186146425184
IRIDIUM 44              
1 25078U 97077B   25056.82205048  .00001006  00000+0  31314-3 0  9990
2 25078  86.3907 268.2728 0003500  62.5781 297.5774 14.40059673427709
IRIDIUM 45              
1 25104U 97082A   25056.85258730  .00025312  00000+0  10313-2 0  9996
2 25104  86.3581 101.7638 0129315  28.7885 332.0411 15.16883006435385
IRIDIUM 24              
1 25105U 97082B   25056.59085626  .00001113  00000+0  33380-3 0  9993
2 25105  86.3922 127.6455 0013586  88.4590 271.8166 14.41909792427136
IRIDIUM 51              
1 25262U 98018A   25056.63617496  .00044181  00000+0  12765-2 0  9993
2 25262  86.3860 110.6885 0101300 316.9915  42.3445 15.30411583430132
IRIDIUM 57              
1 25273U 98019B   25056.87744142  .00001038  00000+0  35265-3 0  9996
2 25273  86.4017 191.8462 0002106  93.7926 266.3511 14.35752690409024
