<?xml version="1.0" encoding="UTF-8"?>
<ndm xmlns:xsi="http://www.w3.org/2001/XMLSchema-instance" xsi:noNamespaceSchemaLocation="https://sanaregistry.org/r/ndmxml_unqualified/ndmxml-2.0.0-master-2.0.xsd">
<omm id="CCSDS_OMM_VERS" version="2.0">
<header><CREATION_DATE/><ORIGINATOR/></header><body><segment><metadata><OBJECT_NAME>IRIDIUM 39</OBJECT_NAME><OBJECT_ID>1997-069D</OBJECT_ID><CENTER_NAME>EARTH</CENTER_NAME><REF_FRAME>TEME</REF_FRAME><TIME_SYSTEM>UTC</TIME_SYSTEM><MEAN_ELEMENT_THEORY>SGP4</MEAN_ELEMENT_THEORY></metadata><data><meanElements><EPOCH>2025-02-25T14:37:51.998304</EPOCH><MEAN_MOTION>14.48932940</MEAN_MOTION><ECCENTRICITY>.0016758</ECCENTRICITY><INCLINATION>86.3861</INCLINATION><RA_OF_ASC_NODE>258.9694</RA_OF_ASC_NODE><ARG_OF_PERICENTER>325.2265</ARG_OF_PERICENTER><MEAN_ANOMALY>34.7842</MEAN_ANOMALY></meanElements><tleParameters><EPHEMERIS_TYPE>0</EPHEMERIS_TYPE><CLASSIFICATION_TYPE>U</CLASSIFICATION_TYPE><NORAD_CAT_ID>25042</NORAD_CAT_ID><ELEMENT_SET_NO>999</ELEMENT_SET_NO><REV_AT_EPOCH>43280</REV_AT_EPOCH><BSTAR>.39134E-3</BSTAR><MEAN_MOTION_DOT>.1504E-4</MEAN_MOTION_DOT><MEAN_MOTION_DDOT>0</MEAN_MOTION_DDOT></tleParameters></data></segment></body></omm>
<omm id="CCSDS_OMM_VERS" version="2.0">
<header><CREATION_DATE/><ORIGINATOR/></header><body><segment><metadata><OBJECT_NAME>IRIDIUM 38</OBJECT_NAME><OBJECT_ID>1997-069E</OBJECT_ID><CENTER_NAME>EARTH</CENTER_NAME><REF_FRAME>TEME</REF_FRAME><TIME_SYSTEM>UTC</TIME_SYSTEM><MEAN_ELEMENT_THEORY>SGP4</MEAN_ELEMENT_THEORY></metadata><data><meanElements><EPOCH>2025-02-25T15:03:14.545152</EPOCH><MEAN_MOTION>14.37935189</MEAN_MOTION><ECCENTRICITY>.0003893</ECCENTRICITY><INCLINATION>86.3915</INCLINATION><RA_OF_ASC_NODE>280.1168</RA_OF_ASC_NODE><ARG_OF_PERICENTER>95.4385</ARG_OF_PERICENTER><MEAN_ANOMALY>264.7257</MEAN_ANOMALY></meanElements><tleParameters><EPHEMERIS_TYPE>0</EPHEMERIS_TYPE><CLASSIFICATION_TYPE>U</CLASSIFICATION_TYPE><NORAD_CAT_ID>25043</NORAD_CAT_ID><ELEMENT_SET_NO>999</ELEMENT_SET_NO><REV_AT_EPOCH>42992</REV_AT_EPOCH><BSTAR>.307E-3</BSTAR><MEAN_MOTION_DOT>.946E-5</MEAN_MOTION_DOT><MEAN_MOTION_DDOT>0</MEAN_MOTION_DDOT></tleParameters></data></segment></body></omm>
<omm id="CCSDS_OMM_VERS" version="2.0">
<header><CREATION_DATE/><ORIGINATOR/></header><body><segment><metadata><OBJECT_NAME>IRIDIUM 42</OBJECT_NAME><OBJECT_ID>1997-077A</OBJECT_ID><CENTER_NAME>EARTH</CENTER_NAME><REF_FRAME>TEME</REF_FRAME><TIME_SYSTEM>UTC</TIME_SYSTEM><MEAN_ELEMENT_THEORY>SGP4</MEAN_ELEMENT_THEORY></metadata><data><meanElements><EPOCH>2025-02-25T15:16:13.569024</EPOCH><MEAN_MOTION>14.36186146</MEAN_MOTION><ECCENTRICITY>.0002647</ECCENTRICITY><INCLINATION>86.3928</INCLINATION><RA_OF_ASC_NODE>286.1504</RA_OF_ASC_NODE><ARG_OF_PERICENTER>95.1449</ARG_OF_PERICENTER><MEAN_ANOMALY>265.0050</MEAN_ANOMALY></meanElements><tleParameters><EPHEMERIS_TYPE>0</EPHEMERIS_TYPE><CLASSIFICATION_TYPE>U</CLASSIFICATION_TYPE><NORAD_CAT_ID>25077</NORAD_CAT_ID><ELEMENT_SET_NO>999</ELEMENT_SET_NO><REV_AT_EPOCH>42518</REV_AT_EPOCH><BSTAR>.29729E-3</BSTAR><MEAN_MOTION_DOT>.886E-5</MEAN_MOTION_DOT><MEAN_MOTION_DDOT>0</MEAN_MOTION_DDOT></tleParameters></data></segment></body></omm>
<omm id="CCSDS_OMM_VERS" version="2.0">
<header><CREATION_DATE/><ORIGINATOR/></header><body><segment><metadata><OBJECT_NAME>IRIDIUM 44</OBJECT_NAME><OBJECT_ID>1997-077B</OBJECT_ID><CENTER_NAME>EARTH</CENTER_NAME><REF_FRAME>TEME</REF_FRAME><TIME_SYSTEM>UTC</TIME_SYSTEM><MEAN_ELEMENT_THEORY>SGP4</MEAN_ELEMENT_THEORY></metadata><data><meanElements><EPOCH>2025-02-25T19:43:45.161472</EPOCH><MEAN_MOTION>14.40059673</MEAN_MOTION><ECCENTRICITY>.00035</ECCENTRICITY><INCLINATION>86.3907</INCLINATION><RA_OF_ASC_NODE>268.2728</RA_OF_ASC_NODE><ARG_OF_PERICENTER>62.5781</ARG_OF_PERICENTER><MEAN_ANOMALY>297.5774</MEAN_ANOMALY></meanElements><tleParameters><EPHEMERIS_TYPE>0</EPHEMERIS_TYPE><CLASSIFICATION_TYPE>U</CLASSIFICATION_TYPE><NORAD_CAT_ID>25078</NORAD_CAT_ID><ELEMENT_SET_NO>999</ELEMENT_SET_NO><REV_AT_EPOCH>42770</REV_AT_EPOCH><BSTAR>.31314E-3</BSTAR><MEAN_MOTION_DOT>.1006E-4</MEAN_MOTION_DOT><MEAN_MOTION_DDOT>0</MEAN_MOTION_DDOT></tleParameters></data></segment></body></omm>
<omm id="CCSDS_OMM_VERS" version="2.0">
<header><CREATION_DATE/><ORIGINATOR/></header><body><segment><metadata><OBJECT_NAME>IRIDIUM 45</OBJECT_NAME><OBJECT_ID>1997-082A</OBJECT_ID><CENTER_NAME>EARTH</CENTER_NAME><REF_FRAME>TEME</REF_FRAME><TIME_SYSTEM>UTC</TIME_SYSTEM><MEAN_ELEMENT_THEORY>SGP4</MEAN_ELEMENT_THEORY></metadata><data><meanElements><EPOCH>2025-02-25T20:27:43.542720</EPOCH><MEAN_MOTION>15.16883006</MEAN_MOTION><ECCENTRICITY>.0129315</ECCENTRICITY><INCLINATION>86.3581</INCLINATION><RA_OF_ASC_NODE>101.7638</RA_OF_ASC_NODE><ARG_OF_PERICENTER>28.7885</ARG_OF_PERICENTER><MEAN_ANOMALY>332.0411</MEAN_ANOMALY></meanElements><tleParameters><EPHEMERIS_TYPE>0</EPHEMERIS_TYPE><CLASSIFICATION_TYPE>U</CLASSIFICATION_TYPE><NORAD_CAT_ID>25104</NORAD_CAT_ID><ELEMENT_SET_NO>999</ELEMENT_SET_NO><REV_AT_EPOCH>43538</REV_AT_EPOCH><BSTAR>.10313E-2</BSTAR><MEAN_MOTION_DOT>.25312E-3</MEAN_MOTION_DOT><MEAN_MOTION_DDOT>0</MEAN_MOTION_DDOT></tleParameters></data></segment></body></omm>
<omm id="CCSDS_OMM_VERS" version="2.0">
<header><CREATION_DATE/><ORIGINATOR/></header><body><segment><metadata><OBJECT_NAME>IRIDIUM 24</OBJECT_NAME><OBJECT_ID>1997-082B</OBJECT_ID><CENTER_NAME>EARTH</CENTER_NAME><REF_FRAME>TEME</REF_FRAME><TIME_SYSTEM>UTC</TIME_SYSTEM><MEAN_ELEMENT_THEORY>SGP4</MEAN_ELEMENT_THEORY></metadata><data><meanElements><EPOCH>2025-02-25T14:10:49.980864</EPOCH><MEAN_MOTION>14.41909792</MEAN_MOTION><ECCENTRICITY>.0013586</ECCENTRICITY><INCLINATION>86.3922</INCLINATION><RA_OF_ASC_NODE>127.6455</RA_OF_ASC_NODE><ARG_OF_PERICENTER>88.4590</ARG_OF_PERICENTER><MEAN_ANOMALY>271.8166</MEAN_ANOMALY></meanElements><tleParameters><EPHEMERIS_TYPE>0</EPHEMERIS_TYPE><CLASSIFICATION_TYPE>U</CLASSIFICATION_TYPE><NORAD_CAT_ID>25105</NORAD_CAT_ID><ELEMENT_SET_NO>999</ELEMENT_SET_NO><REV_AT_EPOCH>42713</REV_AT_EPOCH><BSTAR>.3338E-3</BSTAR><MEAN_MOTION_DOT>.1113E-4</MEAN_MOTION_DOT><MEAN_MOTION_DDOT>0</MEAN_MOTION_DDOT></tleParameters></data></segment></body></omm>
<omm id="CCSDS_OMM_VERS" version="2.0">
<header><CREATION_DATE/><ORIGINATOR/></header><body><segment><metadata><OBJECT_NAME>IRIDIUM 51</OBJECT_NAME><OBJECT_ID>1998-018A</OBJECT_ID><CENTER_NAME>EARTH</CENTER_NAME><REF_FRAME>TEME</REF_FRAME><TIME_SYSTEM>UTC</TIME_SYSTEM><MEAN_ELEMENT_THEORY>SGP4</MEAN_ELEMENT_THEORY></metadata><data><meanElements><EPOCH>2025-02-25T15:16:05.516544</EPOCH><MEAN_MOTION>15.30411583</MEAN_MOTION><ECCENTRICITY>.01013</ECCENTRICITY><INCLINATION>86.3860</INCLINATION><RA_OF_ASC_NODE>110.6885</RA_OF_ASC_NODE><ARG_OF_PERICENTER>316.9915</ARG_OF_PERICENTER><MEAN_ANOMALY>42.3445</MEAN_ANOMALY></meanElements><tleParameters><EPHEMERIS_TYPE>0</EPHEMERIS_TYPE><CLASSIFICATION_TYPE>U</CLASSIFICATION_TYPE><NORAD_CAT_ID>25262</NORAD_CAT_ID><ELEMENT_SET_NO>999</ELEMENT_SET_NO><REV_AT_EPOCH>43013</REV_AT_EPOCH><BSTAR>.12765E-2</BSTAR><MEAN_MOTION_DOT>.44181E-3</MEAN_MOTION_DOT><MEAN_MOTION_DDOT>0</MEAN_MOTION_DDOT></tleParameters></data></segment></body></omm>
<omm id="CCSDS_OMM_VERS" version="2.0">
<header><CREATION_DATE/><ORIGINATOR/></header><body><segment><metadata><OBJECT_NAME>IRIDIUM 57</OBJECT_NAME><OBJECT_ID>1998-019B</OBJECT_ID><CENTER_NAME>EARTH</CENTER_NAME><REF_FRAME>TEME</REF_FRAME><TIME_SYSTEM>UTC</TIME_SYSTEM><MEAN_ELEMENT_THEORY>SGP4</MEAN_ELEMENT_THEORY></metadata><data><meanElements><EPOCH>2025-02-25T21:03:30.938688</EPOCH><MEAN_MOTION>14.35752690</MEAN_MOTION><ECCENTRICITY>.0002106</ECCENTRICITY><INCLINATION>86.4017</INCLINATION><RA_OF_ASC_NODE>191.8462</RA_OF_ASC_NODE><ARG_OF_PERICENTER>93.7926</ARG_OF_PERICENTER><MEAN_ANOMALY>266.3511</MEAN_ANOMALY></meanElements><tleParameters><EPHEMERIS_TYPE>0</EPHEMERIS_TYPE><CLASSIFICATION_TYPE>U</CLASSIFICATION_TYPE><NORAD_CAT_ID>25273</NORAD_CAT_ID><ELEMENT_SET_NO>999</ELEMENT_SET_NO><REV_AT_EPOCH>40902</REV_AT_EPOCH><BSTAR>.35265E-3</BSTAR><MEAN_MOTION_DOT>.1038E-4</MEAN_MOTION_DOT><MEAN_MOTION_DDOT>0</MEAN_MOTION_DDOT></tleParameters></data></segment></body></omm>

</ndm>
